{
  "type": "FeatureCollection",
  "features": [
    {
      "type": "Feature",
      "properties": {
        "norad_id": 15362,
        "name": "NOVA 3",
        "group": "nnss",
        "lat": -0.27480559174613883,
        "lon": -99.30543920355737,
        "alt_km": 1184.5820324271772,
        "timestamp": "2025-12-26T09:30:53.906448+00:00",
        "meta_object_name": "NOVA 3",
        "meta_object_id": "1984-110A",
        "meta_epoch": "2025-12-26T03:28:34.525056",
        "meta_mean_motion": 13.23046301,
        "meta_eccentricity": 0.0029845,
        "meta_inclination": 90.1217,
        "meta_ra_of_asc_node": 80.6922,
        "meta_arg_of_pericenter": 293.237,
        "meta_mean_anomaly": 129.5093,
        "meta_ephemeris_type": 0,
        "meta_classification_type": "U",
        "meta_norad_cat_id": 15362,
        "meta_element_set_no": 999,
        "meta_rev_at_epoch": 98876,
        "meta_bstar": 0.00013654,
        "meta_mean_motion_dot": 6.6e-07,
        "meta_mean_motion_ddot": 0,
        "tle_line1": "1 15362U 84110A   25360.14484404  .00000066  00000+0  13654-3 0  9999",
        "tle_line2": "2 15362  90.1217  80.6922 0029845 293.2370 129.5093 13.23046301988760"
      },
      "geometry": {
        "type": "Point",
        "coordinates": [
          -99.30543920355737,
          -0.27480559174613883
        ]
      }
    },
    {
      "type": "Feature",
      "properties": {
        "norad_id": 15935,
        "name": "OSCAR 30",
        "group": "nnss",
        "lat": -2.617155548001445,
        "lon": -79.93722026604185,
        "alt_km": 1218.495054909522,
        "timestamp": "2025-12-26T09:30:53.906474+00:00",
        "meta_object_name": "OSCAR 30",
        "meta_object_id": "1985-066A",
        "meta_epoch": "2025-12-25T20:37:30.509760",
        "meta_mean_motion": 13.36080597,
        "meta_eccentricity": 0.01688008,
        "meta_inclination": 90.1653,
        "meta_ra_of_asc_node": 100.0616,
        "meta_arg_of_pericenter": 47.223,
        "meta_mean_anomaly": 72.1814,
        "meta_ephemeris_type": 0,
        "meta_classification_type": "U",
        "meta_norad_cat_id": 15935,
        "meta_element_set_no": 999,
        "meta_rev_at_epoch": 96628,
        "meta_bstar": 0.00020088881,
        "meta_mean_motion_dot": 1.21e-06,
        "meta_mean_motion_ddot": 0,
        "tle_line1": "1 15935U 85066A   25359.85938090  .00000121  00000+0  20089-3 0  9999",
        "tle_line2": "2 15935  90.1653 100.0616 0168800  47.2230  72.1814 13.36080597966280"
      },
      "geometry": {
        "type": "Point",
        "coordinates": [
          -79.93722026604185,
          -2.617155548001445
        ]
      }
    },
    {
      "type": "Feature",
      "properties": {
        "norad_id": 15936,
        "name": "OSCAR 24",
        "group": "nnss",
        "lat": -68.9774146294933,
        "lon": -87.91933754136733,
        "alt_km": 1253.778089164829,
        "timestamp": "2025-12-26T09:30:53.906486+00:00",
        "meta_object_name": "OSCAR 24",
        "meta_object_id": "1985-066B",
        "meta_epoch": "2025-12-25T18:26:58.709184",
        "meta_mean_motion": 13.35937682,
        "meta_eccentricity": 0.01699978,
        "meta_inclination": 90.1791,
        "meta_ra_of_asc_node": 92.5359,
        "meta_arg_of_pericenter": 53.9382,
        "meta_mean_anomaly": 58.384,
        "meta_ephemeris_type": 0,
        "meta_classification_type": "U",
        "meta_norad_cat_id": 15936,
        "meta_element_set_no": 999,
        "meta_rev_at_epoch": 96817,
        "meta_bstar": 0.00016315366,
        "meta_mean_motion_dot": 1e-06,
        "meta_mean_motion_ddot": 0,
        "tle_line1": "1 15936U 85066B   25359.76873506  .00000100  00000+0  16315-3 0  9994",
        "tle_line2": "2 15936  90.1791  92.5359 0169997  53.9382  58.3840 13.35937682968173"
      },
      "geometry": {
        "type": "Point",
        "coordinates": [
          -87.91933754136733,
          -68.9774146294933
        ]
      }
    },
    {
      "type": "Feature",
      "properties": {
        "norad_id": 17070,
        "name": "POLAR BEAR",
        "group": "nnss",
        "lat": -36.20852590070124,
        "lon": 3.507406693368775,
        "alt_km": 1008.9881716031359,
        "timestamp": "2025-12-26T09:30:53.906497+00:00",
        "meta_object_name": "POLAR BEAR",
        "meta_object_id": "1986-088A",
        "meta_epoch": "2025-12-26T02:02:54.701376",
        "meta_mean_motion": 13.75253549,
        "meta_eccentricity": 0.0041266,
        "meta_inclination": 89.6169,
        "meta_ra_of_asc_node": 183.2393,
        "meta_arg_of_pericenter": 80.8818,
        "meta_mean_anomaly": 35.6003,
        "meta_ephemeris_type": 0,
        "meta_classification_type": "U",
        "meta_norad_cat_id": 17070,
        "meta_element_set_no": 999,
        "meta_rev_at_epoch": 96162,
        "meta_bstar": 0.00010558,
        "meta_mean_motion_dot": 1.13e-06,
        "meta_mean_motion_ddot": 0,
        "tle_line1": "1 17070U 86088A   25360.08535534  .00000113  00000+0  10558-3 0  9990",
        "tle_line2": "2 17070  89.6169 183.2393 0041266  80.8818  35.6003 13.75253549961622"
      },
      "geometry": {
        "type": "Point",
        "coordinates": [
          3.507406693368775,
          -36.20852590070124
        ]
      }
    },
    {
      "type": "Feature",
      "properties": {
        "norad_id": 18361,
        "name": "OSCAR 27",
        "group": "nnss",
        "lat": 62.399930792569485,
        "lon": 79.06774177997289,
        "alt_km": 1125.7485027540133,
        "timestamp": "2025-12-26T09:30:53.906508+00:00",
        "meta_object_name": "OSCAR 27",
        "meta_object_id": "1987-080A",
        "meta_epoch": "2025-12-26T03:50:36.749184",
        "meta_mean_motion": 13.44909474,
        "meta_eccentricity": 0.0104048,
        "meta_inclination": 90.3736,
        "meta_ra_of_asc_node": 79.774,
        "meta_arg_of_pericenter": 185.2058,
        "meta_mean_anomaly": 174.8018,
        "meta_ephemeris_type": 0,
        "meta_classification_type": "U",
        "meta_norad_cat_id": 18361,
        "meta_element_set_no": 999,
        "meta_rev_at_epoch": 87737,
        "meta_bstar": 0.000166,
        "meta_mean_motion_dot": 1.09e-06,
        "meta_mean_motion_ddot": 0,
        "tle_line1": "1 18361U 87080A   25360.16014756  .00000109  00000+0  16600-3 0  9993",
        "tle_line2": "2 18361  90.3736  79.7740 0104048 185.2058 174.8018 13.44909474877375"
      },
      "geometry": {
        "type": "Point",
        "coordinates": [
          79.06774177997289,
          62.399930792569485
        ]
      }
    },
    {
      "type": "Feature",
      "properties": {
        "norad_id": 18362,
        "name": "OSCAR 29",
        "group": "nnss",
        "lat": 52.575849183651876,
        "lon": 79.75286506315345,
        "alt_km": 1158.766560767719,
        "timestamp": "2025-12-26T09:30:53.906518+00:00",
        "meta_object_name": "OSCAR 29",
        "meta_object_id": "1987-080B",
        "meta_epoch": "2025-12-26T04:01:36.827040",
        "meta_mean_motion": 13.44450933,
        "meta_eccentricity": 0.0104851,
        "meta_inclination": 90.3748,
        "meta_ra_of_asc_node": 80.2344,
        "meta_arg_of_pericenter": 208.3196,
        "meta_mean_anomaly": 178.7197,
        "meta_ephemeris_type": 0,
        "meta_classification_type": "U",
        "meta_norad_cat_id": 18362,
        "meta_element_set_no": 999,
        "meta_rev_at_epoch": 87690,
        "meta_bstar": 0.00014978,
        "meta_mean_motion_dot": 9.8e-07,
        "meta_mean_motion_ddot": 0,
        "tle_line1": "1 18362U 87080B   25360.16778735  .00000098  00000+0  14978-3 0  9991",
        "tle_line2": "2 18362  90.3748  80.2344 0104851 208.3196 178.7197 13.44450933876908"
      },
      "geometry": {
        "type": "Point",
        "coordinates": [
          79.75286506315345,
          52.575849183651876
        ]
      }
    },
    {
      "type": "Feature",
      "properties": {
        "norad_id": 19070,
        "name": "OSCAR 23",
        "group": "nnss",
        "lat": 88.69219135588065,
        "lon": 2.6325593079478313,
        "alt_km": 1060.1185890910247,
        "timestamp": "2025-12-26T09:30:53.906529+00:00",
        "meta_object_name": "OSCAR 23",
        "meta_object_id": "1988-033A",
        "meta_epoch": "2025-12-26T02:08:15.538272",
        "meta_mean_motion": 13.2778918,
        "meta_eccentricity": 0.0190554,
        "meta_inclination": 90.3203,
        "meta_ra_of_asc_node": 16.8058,
        "meta_arg_of_pericenter": 142.902,
        "meta_mean_anomaly": 279.094,
        "meta_ephemeris_type": 0,
        "meta_classification_type": "U",
        "meta_norad_cat_id": 19070,
        "meta_element_set_no": 999,
        "meta_rev_at_epoch": 82430,
        "meta_bstar": 9.8837e-05,
        "meta_mean_motion_dot": 5.9e-07,
        "meta_mean_motion_ddot": 0,
        "tle_line1": "1 19070U 88033A   25360.08906873  .00000059  00000+0  98837-4 0  9998",
        "tle_line2": "2 19070  90.3203  16.8058 0190554 142.9020 279.0940 13.27789180824300"
      },
      "geometry": {
        "type": "Point",
        "coordinates": [
          2.6325593079478313,
          88.69219135588065
        ]
      }
    }
  ]
}